STARLINK-31061          
1 58611U 23200Y   24002.25001157 -.01751690  00000+0 -16149-1 0  9999
2 58611  43.0012 198.3838 0001503 268.7496  41.1470 15.69935476  3470
BEAK                    
1 58612U 98067WD  24001.56407240  .00038683  00000+0  61996-3 0  9998
2 58612  51.6407  65.6942 0005193  26.6556 333.4700 15.52688074  2285
CLARK SAT-1 (AMBITIOUS) 
1 58613U 98067WE  24002.20463084  .00073927  00000+0  11360-2 0  9998
2 58613  51.6400  62.4732 0006381  46.8820 313.2703 15.53562061  2354
COSMOS 2573             
1 58614U 23201A   23363.74627569  .00006013  00000+0  27365-3 0  9990
2 58614  97.5590 286.0722 0010617 276.7292  83.2735 15.21040127  1291
SL-4 R/B                
1 58615U 23201B   24002.10645004  .00060281  00000+0  77880-3 0  9990
2 58615  97.5662 289.7970 0115920  26.2660 334.4406 15.51028430  1828
TANTRUM (TYVAK-1015)    
1 58616U 23202A   24002.06296439  .00678206 -93815-5  94050-3 0  9994
2 58616 140.0241  64.6920 0189092 235.2104 123.0776 15.79150511  1623
FIREFLY ALPHA R/B       
1 58617U 23202B   24002.08154239  .00313111 -92282-5  52954-3 0  9993
2 58617 140.0140  64.5270 0206062 234.0397 124.1133 15.73004298  1631
STARLINK-31054          
1 58619U 23203B   24002.25001157 -.00827932  00000+0 -44150-2 0  9996
2 58619  43.0046 249.9640 0001998 267.9230  30.9101 15.81551520  2726
STARLINK-31118          
1 58620U 23203C   24002.25001157 -.00834642  00000+0 -44579-2 0  9999
2 58620  43.0044 249.9599 0001911 276.1530  24.3112 15.81535148  2849
STARLINK-31134          
1 58621U 23203D   24001.91667824 -.00883574  00000+0 -46236-2 0  9991
2 58621  43.0043 251.9855 0001858 265.3249 301.8418 15.82092917  2737
STARLINK-31133          
1 58622U 23203E   24001.91667824 -.00860047  00000+0 -44809-2 0  9996
2 58622  43.0045 251.9997 0001815 274.8088 286.8545 15.82126859  1551
STARLINK-31068          
1 58623U 23203F   24002.25001157 -.00849055  00000+0 -45476-2 0  9993
2 58623  43.0046 249.9519 0001994 276.2969  27.4466 15.81510846  2781
STARLINK-31129          
1 58624U 23203G   24001.91667824 -.00875535  00000+0 -45752-2 0  9994
2 58624  43.0045 251.9902 0001871 266.3716 299.0868 15.82101940  2734
STARLINK-30774          
1 58625U 23203H   24001.91667824 -.00907936  00000+0 -47735-2 0  9999
2 58625  43.0042 251.9746 0001852 267.2580 304.1583 15.82054508  2791
STARLINK-31086          
1 58626U 23203J   24001.91667824 -.00897384  00000+0 -47083-2 0  9991
2 58626  43.0044 251.9799 0001854 267.9430 301.4887 15.82071614  2788
STARLINK-31065          
1 58627U 23203K   24001.91667824 -.00926583  00000+0 -48896-2 0  9999
2 58627  43.0041 251.9652 0001806 263.8642 311.2391 15.82023650  2675
STARLINK-31092          
1 58628U 23203L   24001.91667824 -.00917381  00000+0 -48310-2 0  9997
2 58628  43.0041 251.9701 0001888 268.7714 304.3503 15.82043515  2732
STARLINK-31091          
1 58629U 23203M   24001.91667824 -.00937660  00000+0 -49589-2 0  9999
2 58629  43.0043 251.9605 0001812 265.5849 311.4410 15.82005270  2629
STARLINK-31084          
1 58630U 23203N   24001.91667824 -.00949940  00000+0 -50368-2 0  9992
2 58630  43.0041 251.9554 0001737 268.5956 310.4588 15.81982659  2797
STARLINK-31064          
1 58631U 23203P   24001.91667824 -.00970115  00000+0 -51636-2 0  9990
2 58631  43.0040 251.9464 0001914 273.1693 309.3658 15.81950649  2737
STARLINK-31081          
1 58632U 23203Q   24001.91667824 -.00975638  00000+0 -51991-2 0  9990
2 58632  43.0040 251.9428 0001887 267.7317 316.2848 15.81940172  2748
STARLINK-31022          
1 58633U 23203R   24001.91667824 -.00960600  00000+0 -51038-2 0  9996
2 58633  43.0041 251.9505 0001767 266.4884 314.3647 15.81965937  2795
STARLINK-31025          
1 58634U 23203S   24002.25001157 -.00905295  00000+0 -33743-2 0  9998
2 58634  43.0037 249.5568 0001833 274.1023 186.2518 15.89062701  2853
STARLINK-31018          
1 58635U 23203T   24001.91667824 -.01010589  00000+0 -54271-2 0  9993
2 58635  43.0041 251.9282 0001899 273.4580 316.3048 15.81866189  2804
STARLINK-31008          
1 58636U 23203U   24002.25001157 -.01220741  00000+0 -67717-2 0  9995
2 58636  43.0041 249.8898 0001805 281.0985  47.1071 15.81248867  2841
STARLINK-31077          
1 58637U 23203V   24001.91667824 -.01016247  00000+0 -54652-2 0  9995
2 58637  43.0040 251.9247 0001692 264.3212 326.9131 15.81853215  2747
STARLINK-31078          
1 58638U 23203W   24001.91667824 -.01030024  00000+0 -55558-2 0  9991
2 58638  43.0042 251.9198 0001916 273.3646 319.8549 15.81823272  2806
STARLINK-31070          
1 58639U 23203X   24002.25001157 -.01141235  00000+0 -63317-2 0  9990
2 58639  43.0041 249.8683 0002120 283.2953  53.4485 15.81065985  2843
STARLINK-31090          
1 58640U 23203Y   24001.91667824 -.01040075  00000+0 -56231-2 0  9990
2 58640  43.0042 251.9154 0001869 271.8691 323.0811 15.81800564  2809
2023-205A               
1 58645U 23205A   24002.14841547  .00004590  00000+0  25859-3 0  9991
2 58645  97.4209  31.5562 0009994 247.4393 112.5781 15.13658413  1234
2023-205B               
1 58646U 23205B   24002.14986406  .00004747  00000+0  26826-3 0  9995
2 58646  97.4194  31.5527 0009252 244.7430 115.2843 15.13531777  1229
2023-205C               
1 58647U 23205C   24002.15132507  .00004731  00000+0  26928-3 0  9998
2 58647  97.4224  31.5543 0009640 233.6830 126.3512 15.13271981  1228
2023-205D               
1 58648U 23205D   24002.15013931  .00004894  00000+0  27663-3 0  9995
2 58648  97.4150  31.5471 0009654 239.6193 120.4084 15.13506743  1226
2023-205E               
1 58649U 23205E   24002.14953202  .00366054  40563-4  10482-2 0  9991
2 58649  97.4162  32.1711 0207572   7.8028 352.6376 15.66177617  1264
2023-206A               
1 58650U 23206A   24002.15802333  .00003813  00000+0  26183-3 0  9997
2 58650  97.3356  10.8587 0009993 245.6992 114.3193 15.06503432  1085
2023-206B               
1 58651U 23206B   24002.15721599  .00003294  00000+0  22668-3 0  9999
2 58651  97.3357  10.8601 0008796 271.1980  88.8240 15.06515467  1084
2023-206C               
1 58652U 23206C   24002.15737444  .00002552  00000+0  17667-3 0  9995
2 58652  97.3350  10.8590 0010525 267.5232  92.4791 15.06475563  1070
2023-206D               
1 58653U 23206D   24002.14693622  .01066291  22557-5  56795-3 0  9997
2 58653  97.1844  11.2779 0277898 310.4870  47.2468 15.71784968  1124
BEIDOU-3 M25            
1 58654U 23207A   24001.31128763 -.00000028  00000+0  00000+0 0  9999
2 58654  54.9750  92.7851 0117823 178.5724 181.4848  1.82957966   128
BEIDOU-3 M26            
1 58655U 23207B   23365.21763142 -.00000028  00000+0  00000+0 0  9997
2 58655  54.9768  92.8211 0118770 178.2904 181.7712  1.82977547    94
YZ-1 R/B                
1 58656U 23207C   23362.72417517 -.00000039  00000+0  00000+0 0  9995
2 58656  55.0291  92.7184 0027712 330.5394 154.5499  1.79267248    48
CZ-3B R/B               
1 58657U 23207D   23361.58623272  .00046695  00000+0  14711-2 0  9990
2 58657  54.9578  92.2573 5812235 170.7397 116.2526  4.40654016    68
COSMOS 2574             
1 58658U 23209A   23364.67155196  .00027790  00000+0  21674-3 0  9993
2 58658  96.7569 258.7874 0008310  33.4449  23.2442 15.71611555   538
SL-4 R/B                
1 58659U 23209B   24001.69637592  .00056347  00000+0  41885-3 0  9996
2 58659  96.7601 260.7691 0005760  16.4661 343.6779 15.72652062   833
2023-208A               
1 58660U 23208A   24002.14563793  .00006182  00000+0  34631-3 0  9992
2 58660  97.4001 119.1340 0010461 231.5794 128.4499 15.13717121   893
2023-208B               
1 58661U 23208B   24002.14482147  .00005903  00000+0  32895-3 0  9996
2 58661  97.3924 119.1284 0010119 236.2654 123.7614 15.13927108   896
2023-208C               
1 58662U 23208C   24002.14445527  .00006341  00000+0  35219-3 0  9998
2 58662  97.3970 119.1329 0009235 236.9741 123.0604 15.14024809   898
2023-208D               
1 58663U 23208D   24002.14318503  .00006093  00000+0  33544-3 0  9995
2 58663  97.3985 119.1357 0009691 246.7107 113.3106 15.14351268   898
2023-208E               
1 58664U 23208E   24002.06288841  .04920331  26354-5  58189-3 0  9990
2 58664  97.3763 119.6835 0156540  18.6994 342.0218 16.07933706   920
2023-212A               
1 58691U 23212A   23364.63461015 -.00000145  00000+0  00000+0 0  9992
2 58691  50.0030  66.4921 0007763 302.3076  57.6673 13.87916452    89
2023-212B               
1 58692U 23212B   23365.88689859 -.00000146  00000+0  00000+0 0  9990
2 58692  49.9992  61.5162 0005167 291.0812 215.0427 13.88669418   260
2023-212C               
1 58693U 23212C   23364.63430397 -.00000145  00000+0  00000+0 0  9993
2 58693  50.0024  66.4919 0007122 283.8530  75.4049 13.88312888    87
XPOSAT                  
1 58694U 24001A   24001.68468223  .00000628  00000+0  00000+0 0  9999
2 58694   5.9870 115.4463 0010488 359.8378  55.4280 14.74838619    62
POEM-3                  
1 58695U 24001B   24001.72040209  .00001705  00000+0  00000+0 0  9992
2 58695   9.6645  97.5677 0007367 329.3489 115.8059 15.73872371    88
